IXPE                    
1 49954U 21121A   24116.91667824  .00009196  00000+0  69863-3 0  9994
2 49954   0.2297  60.8904 0009480 224.6658 137.3177 14.97490051  5042
